LANDSAT 9               
1 49260U 21088A   24101.80637442  .00000493  00000+0  11950-3 0  9996
2 49260  98.1913 172.5532 0001359  83.5988 276.5365 14.57123932134872
